     3.03           N: GNSS NAV DATA    M: Mixed            RINEX VERSION / TYPE
Emlid RGL 1.2.7                         20241128 085416 UTC PGM / RUN BY / DATE 
format: u-blox                                              COMMENT             
GPSA   0.0000E+00  0.0000E+00  0.0000E+00  0.0000E+00       IONOSPHERIC CORR    
GPSB   0.0000E+00  0.0000E+00  0.0000E+00  0.0000E+00       IONOSPHERIC CORR    
GAL    0.0000E+00  0.0000E+00  0.0000E+00  0.0000E+00       IONOSPHERIC CORR    
QZSA   0.0000E+00  0.0000E+00  0.0000E+00  0.0000E+00       IONOSPHERIC CORR    
QZSB   0.0000E+00  0.0000E+00  0.0000E+00  0.0000E+00       IONOSPHERIC CORR    
GPUT  0.0000000000E+00 0.000000000E+00      0 2304          TIME SYSTEM CORR    
GAUT  0.0000000000E+00 0.000000000E+00      0    0          TIME SYSTEM CORR    
QZUT  0.0000000000E+00 0.000000000E+00      0 2304          TIME SYSTEM CORR    
BDUT  0.0000000000E+00 0.000000000E+00      0    0          TIME SYSTEM CORR    
     0                                                      LEAP SECONDS        
                                                            END OF HEADER       
G26 2024 11 28 10  0  0  .106324441731E-04 -.134150468512E-10  .000000000000E+00
      .420000000000E+02  .719687500000E+02  .480377152494E-08  .250539255897E+01
      .366196036339E-05  .963792193215E-02  .106543302536E-04  .515374530029E+04
      .381600000000E+06 -.104308128357E-06  .286625662392E+01 -.141561031342E-06
      .930458268910E+00  .158718750000E+03  .585006767149E+00 -.804533512050E-08
     -.145006040084E-09  .100000000000E+01  .234200000000E+04  .000000000000E+00
      .200000000000E+01  .000000000000E+00  .651925802231E-08  .420000000000E+02
      .377346000000E+06  .400000000000E+01
G31 2024 11 28 10  0  0 -.220975372940E-03  .682121026330E-12  .000000000000E+00
      .880000000000E+02 -.290625000000E+02  .476412701644E-08  .311342348133E+01
     -.159069895744E-05  .107262388337E-01  .789947807789E-05  .515359533119E+04
      .381600000000E+06 -.298023223877E-07  .192710418458E+01 -.149011611938E-06
      .953907078516E+00  .222062500000E+03  .777052423490E+00 -.795033116320E-08
     -.576809740727E-09  .100000000000E+01  .234200000000E+04  .000000000000E+00
      .200000000000E+01  .000000000000E+00 -.130385160446E-07  .880000000000E+02
      .377346000000E+06  .400000000000E+01
G18 2024 11 28 10  0  0 -.660594552755E-03  .000000000000E+00  .000000000000E+00
      .180000000000E+03 -.102187500000E+03  .423589072757E-08 -.136383001640E+01
     -.546686351299E-05  .480139208958E-02  .465661287308E-05  .515372318459E+04
      .381600000000E+06  .372529029846E-07 -.121775505536E+01 -.894069671631E-07
      .974088343558E+00  .294343750000E+03 -.294312675158E+01 -.805176395972E-08
     -.113576159474E-09  .100000000000E+01  .234200000000E+04  .000000000000E+00
      .200000000000E+01  .000000000000E+00 -.838190317154E-08  .180000000000E+03
      .377376000000E+06  .400000000000E+01
R14 2024 11 28  8 45  0  .272784382105E-04  .000000000000E+00  .377460000000E+06
     -.174245620117E+05 -.241191291809E+01 -.279396772385E-08  .000000000000E+00
      .514217431641E+04 -.435589790344E+00 -.186264514923E-08 -.700000000000E+01
      .179033715820E+05 -.222481441498E+01  .000000000000E+00  .000000000000E+00
R17 2024 11 28  8 45  0  .143795274198E-03  .363797880709E-11  .377460000000E+06
     -.182331333008E+05  .375010490417E+00 -.931322574615E-09  .000000000000E+00
      .177170595703E+05 -.892028808594E-01 -.186264514923E-08  .400000000000E+01
      .237134033203E+04  .356965541840E+01  .000000000000E+00  .000000000000E+00
R23 2024 11 28  8 45  0 -.139805488288E-03 -.909494701773E-12  .377490000000E+06
     -.409638330078E+04  .216840648651E+01 -.279396772385E-08  .000000000000E+00
     -.105509985352E+05 -.226322650909E+01  .000000000000E+00  .300000000000E+01
      .228597070312E+05 -.655998229980E+00 -.931322574615E-09  .000000000000E+00
E12 2024 11 28  8 40  0 -.131581310416E-02 -.171525016412E-10  .000000000000E+00
      .120000000000E+03 -.156718750000E+03  .262868092368E-08  .115314990413E+01
     -.751763582230E-05  .275429338217E-03  .469014048576E-05  .544061288643E+04
      .376800000000E+06 -.186264514923E-08 -.115646646962E+01 -.260770320892E-07
      .996700122641E+00  .260781250000E+03 -.570148996629E+00 -.549594321381E-08
     -.211080220910E-09  .100000000000E+01  .234200000000E+04  .000000000000E+00
      .312000000000E+01  .000000000000E+00 -.142026692629E-07 -.139698386192E-07
      .377509000000E+06  .000000000000E+00
E10 2024 11 28  8 40  0 -.672847789247E-03 -.251532128459E-11  .000000000000E+00
      .120000000000E+03 -.148343750000E+03  .256939273981E-08  .283528953452E+01
     -.701099634171E-05  .192761537619E-03  .492855906487E-05  .544060844040E+04
      .376800000000E+06 -.242143869400E-07 -.115909854598E+01 -.186264514923E-07
      .999628096123E+00  .258718750000E+03 -.261818653016E+01 -.546951354148E-08
     -.214294640518E-09  .100000000000E+01  .234200000000E+04  .000000000000E+00
      .312000000000E+01  .000000000000E+00 -.349245965481E-08 -.279396772385E-08
      .377509000000E+06  .000000000000E+00
G21 2024 11 28  9 59 44  .963541679084E-04 -.909494701773E-12  .000000000000E+00
      .600000000000E+01 -.913437500000E+02  .479769984346E-08  .482361446348E+00
     -.510364770889E-05  .256315370789E-01  .389106571674E-05  .515363043213E+04
      .381584000000E+06  .359490513802E-06 -.132999688762E+01 -.318512320518E-06
      .960687215199E+00  .304968750000E+03 -.486698762923E+00 -.864428864075E-08
     -.163221084528E-09  .100000000000E+01  .234200000000E+04  .000000000000E+00
      .200000000000E+01  .000000000000E+00 -.102445483208E-07  .600000000000E+01
      .377526000000E+06  .400000000000E+01
R24 2024 11 28  8 45  0 -.819154083729E-04 -.909494701773E-12  .377550000000E+06
     -.170885219727E+05  .177167606354E+01 -.279396772385E-08  .000000000000E+00
      .564731884766E+04 -.172944736481E+01 -.186264514923E-08  .200000000000E+01
      .181102202148E+05  .221206855774E+01  .000000000000E+00  .000000000000E+00
G16 2024 11 28  9 59 44 -.116954557598E-03  .966338120634E-11  .000000000000E+00
      .900000000000E+01  .861875000000E+02  .418124559423E-08  .166227212031E+01
      .442378222942E-05  .142961979145E-01  .102240592241E-04  .515366616249E+04
      .381584000000E+06 -.296160578728E-06  .303837450235E+01 -.540167093277E-07
      .961083225660E+00  .187187500000E+03  .855833072426E+00 -.794747390133E-08
     -.871464871438E-10  .100000000000E+01  .234200000000E+04  .000000000000E+00
      .200000000000E+01  .000000000000E+00 -.102445483208E-07  .900000000000E+01
      .377586000000E+06  .400000000000E+01
R15 2024 11 28  8 45  0  .736564397812E-04  .000000000000E+00  .377580000000E+06
      .118753417969E+03 -.304745006561E+01 -.931322574615E-09  .000000000000E+00
      .113112788086E+05 -.703490257263E+00 -.931322574615E-09  .000000000000E+00
      .228767792969E+05  .363285064697E+00 -.186264514923E-08  .000000000000E+00
R18 2024 11 28  8 45  0  .174056738615E-03  .909494701773E-12  .377580000000E+06
     -.100019057617E+05 -.116465759277E+01  .931322574615E-09  .000000000000E+00
      .191380068359E+05  .146070098877E+01 -.931322574615E-09 -.300000000000E+01
     -.135185595703E+05  .292840576172E+01  .931322574615E-09  .000000000000E+00
E11 2024 11 28  8 40  0  .548075069673E-03 -.198653538064E-09 -.346944695195E-17
      .120000000000E+03 -.148250000000E+03  .260582282869E-08 -.457371023910E+00
     -.687874853611E-05  .148177728988E-03  .475905835629E-05  .544061094093E+04
      .376800000000E+06 -.204890966415E-07 -.115647028198E+01  .745058059692E-08
      .996687936533E+00  .260000000000E+03  .248275661541E+00 -.548451416632E-08
     -.220723479733E-09  .100000000000E+01  .234200000000E+04  .000000000000E+00
      .312000000000E+01  .000000000000E+00 -.179279595613E-07 -.188592821360E-07
      .377599000000E+06  .000000000000E+00
E24 2024 11 28  8  0  0 -.112464738777E-02 -.213589146369E-10  .000000000000E+00
      .116000000000E+03  .138218750000E+03  .273047087793E-08  .804509271680E+00
      .643543899059E-05  .687287189066E-03  .104662030935E-04  .544064031029E+04
      .374400000000E+06  .186264514923E-07  .303442236917E+01 -.540167093277E-07
      .963009530355E+00  .118687500000E+03  .811073203700E+00 -.537879547699E-08
     -.489306095849E-10  .100000000000E+01  .234200000000E+04  .000000000000E+00
      .312000000000E+01  .000000000000E+00 -.605359673500E-08 -.698491930962E-08
      .377599000000E+06  .000000000000E+00
J 3 2024 11 28  9  0  0 -.772811472416E-05 -.909494701773E-12  .000000000000E+00
      .193000000000E+03 -.599250000000E+03 -.178578867098E-09  .137677642154E+01
     -.203102827072E-04  .753758329665E-01 -.782124698162E-05  .649381691360E+04
      .378000000000E+06  .414438545704E-05 -.126801688291E+01 -.340864062309E-06
      .705446765992E+00  .456656250000E+03 -.155313478454E+01  .160720980388E-10
     -.150363406097E-09  .200000000000E+01  .234200000000E+04  .100000000000E+01
      .280000000000E+01  .100000000000E+01  .931322574615E-09  .961000000000E+03
      .377646000000E+06  .100000000000E+01
